{
  "norad_id": 65977,
  "name": "SDA_1667",
  "history": [
    {
      "epoch": "2026-03-28T22:33:40.567968Z",
      "apogee_km": 950.7396999153843,
      "perigee_km": 949.500931298754,
      "latitude_deg": 6.288785492478127e-06,
      "longitude_deg": 121.3308734269339,
      "height_km": 952.9355369681168,
      "semi_major_axis_km": 7328.257315607069,
      "eccentricity": 8.452e-05,
      "inclination_deg": 81.2952,
      "raan_deg": 286.1032,
      "arg_perigee_deg": 85.5158,
      "mean_anomaly_deg": 274.6095,
      "mean_motion_rev_day": 13.838904
    },
    {
      "epoch": "2026-03-29T04:00:01.999584Z",
      "apogee_km": 949.8505664812146,
      "perigee_km": 948.4701036632878,
      "latitude_deg": 50.200585458686376,
      "longitude_deg": 49.840295292494474,
      "height_km": 956.568695456531,
      "semi_major_axis_km": 7327.297335072251,
      "eccentricity": 9.42e-05,
      "inclination_deg": 81.2958,
      "raan_deg": 285.8925,
      "arg_perigee_deg": 88.8375,
      "mean_anomaly_deg": 322.0768,
      "mean_motion_rev_day": 13.84162373
    },
    {
      "epoch": "2026-03-30T02:19:33.301344Z",
      "apogee_km": 951.2209450331711,
      "perigee_km": 949.6995282468442,
      "latitude_deg": -4.981201111153492e-05,
      "longitude_deg": 62.649489496323376,
      "height_km": 953.5151348140458,
      "semi_major_axis_km": 7328.597236640007,
      "eccentricity": 0.0001038,
      "inclination_deg": 81.2953,
      "raan_deg": 285.0318,
      "arg_perigee_deg": 104.5873,
      "mean_anomaly_deg": 255.5398,
      "mean_motion_rev_day": 13.83794118
    },
    {
      "epoch": "2026-03-30T05:47:48.181632Z",
      "apogee_km": 951.0928024112582,
      "perigee_km": 949.9640413629786,
      "latitude_deg": -1.992771895255022e-05,
      "longitude_deg": 10.310552320773585,
      "height_km": 953.445007220134,
      "semi_major_axis_km": 7328.665421887118,
      "eccentricity": 7.701e-05,
      "inclination_deg": 81.2954,
      "raan_deg": 284.8974,
      "arg_perigee_deg": 95.3831,
      "mean_anomaly_deg": 264.7413,
      "mean_motion_rev_day": 13.83774806
    },
    {
      "epoch": "2026-03-30T12:44:19.425696Z",
      "apogee_km": 951.3922166996963,
      "perigee_km": 950.0983758191142,
      "latitude_deg": 6.955515251298383e-05,
      "longitude_deg": -94.37231562835349,
      "height_km": 953.644264203055,
      "semi_major_axis_km": 7328.882296259405,
      "eccentricity": 8.827e-05,
      "inclination_deg": 81.2954,
      "raan_deg": 284.6298,
      "arg_perigee_deg": 93.1558,
      "mean_anomaly_deg": 266.97,
      "mean_motion_rev_day": 13.83713384
    },
    {
      "epoch": "2026-03-30T19:40:49.346112Z",
      "apogee_km": 951.39551442422,
      "perigee_km": 950.0980088430597,
      "latitude_deg": 4.3889274554112504e-05,
      "longitude_deg": 160.95002918476737,
      "height_km": 953.6489854904236,
      "semi_major_axis_km": 7328.88376163364,
      "eccentricity": 8.852e-05,
      "inclination_deg": 81.2954,
      "raan_deg": 284.3619,
      "arg_perigee_deg": 93.4349,
      "mean_anomaly_deg": 266.6909,
      "mean_motion_rev_day": 13.83712969
    },
    {
      "epoch": "2026-03-31T06:05:34.087200Z",
      "apogee_km": 951.3958312691875,
      "perigee_km": 950.0898248838239,
      "latitude_deg": 7.98149596408782e-05,
      "longitude_deg": 3.9342907946948698,
      "height_km": 953.6479624092237,
      "semi_major_axis_km": 7328.879828076505,
      "eccentricity": 8.91e-05,
      "inclination_deg": 81.2953,
      "raan_deg": 283.9602,
      "arg_perigee_deg": 93.6697,
      "mean_anomaly_deg": 266.4562,
      "mean_motion_rev_day": 13.83714083
    },
    {
      "epoch": "2026-04-01T18:32:10.928544Z",
      "apogee_km": 951.4004475398697,
      "perigee_km": 950.085646459439,
      "latitude_deg": 7.833787027439531e-06,
      "longitude_deg": 174.37749211527822,
      "height_km": 953.6443304684756,
      "semi_major_axis_km": 7328.880046999654,
      "eccentricity": 8.97e-05,
      "inclination_deg": 81.2951,
      "raan_deg": 282.5536,
      "arg_perigee_deg": 93.3095,
      "mean_anomaly_deg": 266.8164,
      "mean_motion_rev_day": 13.83714021
    },
    {
      "epoch": "2026-04-02T18:49:55.487136Z",
      "apogee_km": 951.3959388384983,
      "perigee_km": 950.091398079513,
      "latitude_deg": -7.064752581524687e-05,
      "longitude_deg": 168.00633080602984,
      "height_km": 953.6770104893964,
      "semi_major_axis_km": 7328.880668459005,
      "eccentricity": 8.9e-05,
      "inclination_deg": 81.2952,
      "raan_deg": 281.6159,
      "arg_perigee_deg": 96.1583,
      "mean_anomaly_deg": 263.9674,
      "mean_motion_rev_day": 13.83713845
    },
    {
      "epoch": "2026-04-02T22:18:10.383840Z",
      "apogee_km": 951.411427981543,
      "perigee_km": 950.0706830300678,
      "latitude_deg": 5.6403652602638225e-05,
      "longitude_deg": 115.66773977658205,
      "height_km": 953.6816347091102,
      "semi_major_axis_km": 7328.878055505805,
      "eccentricity": 9.147e-05,
      "inclination_deg": 81.2951,
      "raan_deg": 281.4819,
      "arg_perigee_deg": 96.6186,
      "mean_anomaly_deg": 263.5075,
      "mean_motion_rev_day": 13.83714585
    },
    {
      "epoch": "2026-04-03T20:51:47.439648Z",
      "apogee_km": 951.4102491677077,
      "perigee_km": 950.0719960225215,
      "latitude_deg": -3.5505140818709e-05,
      "longitude_deg": 135.46630823928757,
      "height_km": 953.6746679488377,
      "semi_major_axis_km": 7328.878122595114,
      "eccentricity": 9.13e-05,
      "inclination_deg": 81.2951,
      "raan_deg": 280.6114,
      "arg_perigee_deg": 96.0239,
      "mean_anomaly_deg": 264.1021,
      "mean_motion_rev_day": 13.83714566
    },
    {
      "epoch": "2026-04-04T14:13:24.229056Z",
      "apogee_km": 952.6158752803976,
      "perigee_km": 950.5752777310981,
      "latitude_deg": -3.724313880061278e-05,
      "longitude_deg": -126.3194406703392,
      "height_km": 954.7203100416581,
      "semi_major_axis_km": 7329.732576505748,
      "eccentricity": 0.0001392,
      "inclination_deg": 81.2953,
      "raan_deg": 279.9419,
      "arg_perigee_deg": 104.9038,
      "mean_anomaly_deg": 255.2272,
      "mean_motion_rev_day": 13.83472616
    },
    {
      "epoch": "2026-04-05T11:04:01.282944Z",
      "apogee_km": 954.4887878379395,
      "perigee_km": 952.539888279256,
      "latitude_deg": -6.163501202413228e-05,
      "longitude_deg": -80.63225410403354,
      "height_km": 956.7931979034478,
      "semi_major_axis_km": 7331.6513380585975,
      "eccentricity": 0.00013291,
      "inclination_deg": 81.2956,
      "raan_deg": 279.1395,
      "arg_perigee_deg": 115.3373,
      "mean_anomaly_deg": 244.792,
      "mean_motion_rev_day": 13.8292955
    },
    {
      "epoch": "2026-04-05T20:00:03.000384Z",
      "apogee_km": 958.0138840141626,
      "perigee_km": 956.8504627432658,
      "latitude_deg": 51.69686310047008,
      "longitude_deg": 155.73718468568234,
      "height_km": 965.3654495917169,
      "semi_major_axis_km": 7335.569173378714,
      "eccentricity": 7.93e-05,
      "inclination_deg": 81.2977,
      "raan_deg": 278.7679,
      "arg_perigee_deg": 103.5629,
      "mean_anomaly_deg": 308.8922,
      "mean_motion_rev_day": 13.8182179
    }
  ]
}